KUIPER-00027            
1 63740U 25088S   25199.06502305  .00014803  00000+0  40058-3 0  9995
2 63740  51.8712  70.7623 0002173  72.4885 287.6339 15.37911322 12621
KUIPER-00028            
1 63741U 25088T   25199.05680576  .00015042  00000+0  40546-3 0  9990
2 63741  51.8703  70.7052 0001904  56.6833 303.4336 15.38018622 13038
KUIPER-00029            
1 63742U 25088U   25199.62474799  .00009929  00000+0  28183-3 0  9992
2 63742  51.8704  68.4932 0005246  53.0089 307.1377 15.36828895 12649
KUIPER-00030            
1 63743U 25088V   25199.64449193 -.00183433  00000+0 -88788-2 0  9996
2 63743  51.8823  70.8802 0009466  30.3757 329.7769 15.18859577 12896
KUIPER-00031            
1 63744U 25088W   25198.03730253  .00009158  00000+0  25531-3 0  9996
2 63744  51.8693  75.8644 0004288  44.5804 315.5527 15.37497077 12404
KUIPER-00032            
1 63745U 25088X   25199.35256043  .00010958  00000+0  30549-3 0  9998
2 63745  51.8696  69.6677 0004891  38.3771 321.7563 15.37276630 13601
KUIPER-00033            
1 63746U 25088Y   25199.58335648  .00034242  00000+0  45153-2 0  9991
2 63746  51.9006  81.8068 0003507 113.8924 326.7968 14.79767426  5305
KUIPER-00034            
1 63747U 25088Z   25199.05929542  .00012063  00000+0  33120-3 0  9995
2 63747  51.8709  70.7228 0002371  66.3698 293.7538 15.37653856 12724
